{
  "type": "FeatureCollection",
  "features": [
    {
      "type": "Feature",
      "properties": {
        "norad_id": 40069,
        "name": "METEOR-M 2",
        "group": "weather",
        "lat": -14.550151641938193,
        "lon": -41.91011847749698,
        "alt_km": 826.2356395361203,
        "timestamp": "2025-12-03T22:42:32.302284+00:00",
        "meta_object_name": "METEOR-M 2",
        "meta_object_id": "2014-037A",
        "meta_epoch": "2025-12-03T12:38:28.709952",
        "meta_mean_motion": 14.21380697,
        "meta_eccentricity": 0.0004707,
        "meta_inclination": 98.4893,
        "meta_ra_of_asc_node": 315.4649,
        "meta_arg_of_pericenter": 240.5103,
        "meta_mean_anomaly": 119.5606,
        "meta_ephemeris_type": 0,
        "meta_classification_type": "U",
        "meta_norad_cat_id": 40069,
        "meta_element_set_no": 999,
        "meta_rev_at_epoch": 59152,
        "meta_bstar": 0.00012616,
        "meta_mean_motion_dot": 2.34e-06,
        "meta_mean_motion_ddot": 0,
        "tle_line1": "1 40069U 14037A   25337.52672118  .00000234  00000+0  12616-3 0  9993",
        "tle_line2": "2 40069  98.4893 315.4649 0004707 240.5103 119.5606 14.21380697591528"
      },
      "geometry": {
        "type": "Point",
        "coordinates": [
          -41.91011847749698,
          -14.550151641938193
        ]
      }
    },
    {
      "type": "Feature",
      "properties": {
        "norad_id": 40267,
        "name": "HIMAWARI-8",
        "group": "weather",
        "lat": 0.014935557320899035,
        "lon": -165.69646623402778,
        "alt_km": 35786.336273650086,
        "timestamp": "2025-12-03T22:42:32.302295+00:00",
        "meta_object_name": "HIMAWARI-8",
        "meta_object_id": "2014-060A",
        "meta_epoch": "2025-12-03T10:59:59.057952",
        "meta_mean_motion": 1.00270674,
        "meta_eccentricity": 0.0001242,
        "meta_inclination": 0.0039,
        "meta_ra_of_asc_node": 102.1153,
        "meta_arg_of_pericenter": 181.2671,
        "meta_mean_anomaly": 94.8417,
        "meta_ephemeris_type": 0,
        "meta_classification_type": "U",
        "meta_norad_cat_id": 40267,
        "meta_element_set_no": 999,
        "meta_rev_at_epoch": 4079,
        "meta_bstar": 0,
        "meta_mean_motion_dot": -2.57e-06,
        "meta_mean_motion_ddot": 0,
        "tle_line1": "1 40267U 14060A   25337.45832243 -.00000257  00000+0  00000+0 0  9994",
        "tle_line2": "2 40267   0.0039 102.1153 0001242 181.2671  94.8417  1.00270674 40791"
      },
      "geometry": {
        "type": "Point",
        "coordinates": [
          -165.69646623402778,
          0.014935557320899035
        ]
      }
    },
    {
      "type": "Feature",
      "properties": {
        "norad_id": 40367,
        "name": "FENGYUN 2G",
        "group": "weather",
        "lat": 5.03255991152086,
        "lon": 153.27823043730183,
        "alt_km": 35792.2011360195,
        "timestamp": "2025-12-03T22:42:32.302305+00:00",
        "meta_object_name": "FENGYUN 2G",
        "meta_object_id": "2014-090A",
        "meta_epoch": "2025-12-02T19:23:41.667360",
        "meta_mean_motion": 1.00267744,
        "meta_eccentricity": 0.00030671,
        "meta_inclination": 5.141,
        "meta_ra_of_asc_node": 75.2124,
        "meta_arg_of_pericenter": 193.3464,
        "meta_mean_anomaly": 193.9973,
        "meta_ephemeris_type": 0,
        "meta_classification_type": "U",
        "meta_norad_cat_id": 40367,
        "meta_element_set_no": 999,
        "meta_rev_at_epoch": 4003,
        "meta_bstar": 0,
        "meta_mean_motion_dot": -2.84e-06,
        "meta_mean_motion_ddot": 0,
        "tle_line1": "1 40367U 14090A   25336.80812115 -.00000284  00000+0  00000+0 0  9992",
        "tle_line2": "2 40367   5.1410  75.2124 0003067 193.3464 193.9973  1.00267744 40039"
      },
      "geometry": {
        "type": "Point",
        "coordinates": [
          153.27823043730183,
          5.03255991152086
        ]
      }
    },
    {
      "type": "Feature",
      "properties": {
        "norad_id": 40732,
        "name": "METEOSAT-11 (MSG-4)",
        "group": "weather",
        "lat": -0.39301937700032824,
        "lon": 63.136306900985545,
        "alt_km": 35785.4243793033,
        "timestamp": "2025-12-03T22:42:32.302317+00:00",
        "meta_object_name": "METEOSAT-11 (MSG-4)",
        "meta_object_id": "2015-034A",
        "meta_epoch": "2025-12-03T06:57:10.948320",
        "meta_mean_motion": 1.00277761,
        "meta_eccentricity": 2.42e-05,
        "meta_inclination": 2.7119,
        "meta_ra_of_asc_node": 72.0251,
        "meta_arg_of_pericenter": 163.8795,
        "meta_mean_anomaly": 310.2425,
        "meta_ephemeris_type": 0,
        "meta_classification_type": "U",
        "meta_norad_cat_id": 40732,
        "meta_element_set_no": 999,
        "meta_rev_at_epoch": 525,
        "meta_bstar": 0,
        "meta_mean_motion_dot": 8.2e-07,
        "meta_mean_motion_ddot": 0,
        "tle_line1": "1 40732U 15034A   25337.28971005  .00000082  00000+0  00000+0 0  9999",
        "tle_line2": "2 40732   2.7119  72.0251 0000242 163.8795 310.2425  1.00277761  5252"
      },
      "geometry": {
        "type": "Point",
        "coordinates": [
          63.136306900985545,
          -0.39301937700032824
        ]
      }
    },
    {
      "type": "Feature",
      "properties": {
        "norad_id": 41105,
        "name": "ELEKTRO-L 2",
        "group": "weather",
        "lat": -3.418905243382598,
        "lon": 39.31110006312229,
        "alt_km": 35797.76846887496,
        "timestamp": "2025-12-03T22:42:32.302328+00:00",
        "meta_object_name": "ELEKTRO-L 2",
        "meta_object_id": "2015-074A",
        "meta_epoch": "2025-12-03T01:42:07.255584",
        "meta_mean_motion": 1.00269824,
        "meta_eccentricity": 0.00039939,
        "meta_inclination": 6.1994,
        "meta_ra_of_asc_node": 72.9411,
        "meta_arg_of_pericenter": 197.267,
        "meta_mean_anomaly": 172.9677,
        "meta_ephemeris_type": 0,
        "meta_classification_type": "U",
        "meta_norad_cat_id": 41105,
        "meta_element_set_no": 999,
        "meta_rev_at_epoch": 3654,
        "meta_bstar": 0,
        "meta_mean_motion_dot": -1.01e-06,
        "meta_mean_motion_ddot": 0,
        "tle_line1": "1 41105U 15074A   25337.07091731 -.00000101  00000+0  00000+0 0  9997",
        "tle_line2": "2 41105   6.1994  72.9411 0003993 197.2670 172.9677  1.00269824 36541"
      },
      "geometry": {
        "type": "Point",
        "coordinates": [
          39.31110006312229,
          -3.418905243382598
        ]
      }
    },
    {
      "type": "Feature",
      "properties": {
        "norad_id": 41752,
        "name": "INSAT-3DR",
        "group": "weather",
        "lat": 0.04851782803920381,
        "lon": 127.56201629022009,
        "alt_km": 35834.47460966488,
        "timestamp": "2025-12-03T22:42:32.302339+00:00",
        "meta_object_name": "INSAT-3DR",
        "meta_object_id": "2016-054A",
        "meta_epoch": "2025-12-03T10:41:00.877056",
        "meta_mean_motion": 1.0026958,
        "meta_eccentricity": 0.0014469,
        "meta_inclination": 0.0678,
        "meta_ra_of_asc_node": 89.0984,
        "meta_arg_of_pericenter": 179.96,
        "meta_mean_anomaly": 37.7604,
        "meta_ephemeris_type": 0,
        "meta_classification_type": "U",
        "meta_norad_cat_id": 41752,
        "meta_element_set_no": 999,
        "meta_rev_at_epoch": 3385,
        "meta_bstar": 0,
        "meta_mean_motion_dot": -5.9e-07,
        "meta_mean_motion_ddot": 0,
        "tle_line1": "1 41752U 16054A   25337.44514904 -.00000059  00000+0  00000+0 0  9999",
        "tle_line2": "2 41752   0.0678  89.0984 0014469 179.9600  37.7604  1.00269580 33853"
      },
      "geometry": {
        "type": "Point",
        "coordinates": [
          127.56201629022009,
          0.04851782803920381
        ]
      }
    },
    {
      "type": "Feature",
      "properties": {
        "norad_id": 41836,
        "name": "HIMAWARI-9",
        "group": "weather",
        "lat": -0.030834946845857875,
        "lon": -165.63943997986118,
        "alt_km": 35788.61916014711,
        "timestamp": "2025-12-03T22:42:32.302350+00:00",
        "meta_object_name": "HIMAWARI-9",
        "meta_object_id": "2016-064A",
        "meta_epoch": "2025-12-02T23:00:58.348224",
        "meta_mean_motion": 1.0027266,
        "meta_eccentricity": 0.00024178,
        "meta_inclination": 0.0194,
        "meta_ra_of_asc_node": 335.8786,
        "meta_arg_of_pericenter": 323.9867,
        "meta_mean_anomaly": 258.1785,
        "meta_ephemeris_type": 0,
        "meta_classification_type": "U",
        "meta_norad_cat_id": 41836,
        "meta_element_set_no": 999,
        "meta_rev_at_epoch": 3324,
        "meta_bstar": 0,
        "meta_mean_motion_dot": 0,
        "meta_mean_motion_ddot": 0,
        "tle_line1": "1 41836U 16064A   25336.95900866  .00000000  00000+0  00000+0 0  9999",
        "tle_line2": "2 41836   0.0194 335.8786 0002417 323.9867 258.1785  1.00272660 33242"
      },
      "geometry": {
        "type": "Point",
        "coordinates": [
          -165.63943997986118,
          -0.030834946845857875
        ]
      }
    }
  ]
}